ZIYUAN 3-04 (ZY 3-04)   
1 67131U 25300A   26009.18248613  .00001730  00000+0  80130-4 0  9994
2 67131  97.4889  88.1516 0003945 118.6144 241.5489 15.21458354  3666
CZ-4B R/B               
1 67132U 25300B   26011.29916244  .00152760  91360-5  61052-3 0  9998
2 67132  97.5503  92.3780 0153508 280.1710  78.2269 15.70661294  4100
KUIPER-00144            
1 67133U 25301A   26011.18631571  .00032158  00000+0  90644-3 0  9997
2 67133  51.8729 343.1039 0006309 168.2931 191.8203 15.36121451  4899
KUIPER-00164            
1 67134U 25301B   26011.17525738  .00033463  00000+0  92583-3 0  9998
2 67134  51.8746 343.0330 0002964 148.9361 211.1801 15.36695162  5073
KUIPER-00175            
1 67135U 25301C   26011.29672517  .00034821  00000+0  94587-3 0  9995
2 67135  51.8755 342.3466 0002724  97.9538 262.1758 15.37246380  4980
KUIPER-00179            
1 67136U 25301D   26011.17289725  .00039476  00000+0  10856-2 0  9995
2 67136  51.8753 343.0159 0003131 133.4614 226.6633 15.36804378  5074
KUIPER-00181            
1 67137U 25301E   26011.07440973  .00029657  00000+0  87260-3 0  9993
2 67137  51.8651 343.8395 0010625 194.1106 165.9584 15.34781948  5039
KUIPER-00183            
1 67138U 25301F   26011.14400450  .00031283  00000+0  91900-3 0  9992
2 67138  51.8627 343.5495 0011274 196.9078 163.1534 15.34797253  5053
KUIPER-00184            
1 67139U 25301G   26011.20326706  .00035166  00000+0  10236-2 0  9997
2 67139  51.8635 343.2006 0009481 194.7737 165.2972 15.35047406  5174
KUIPER-00186            
1 67140U 25301H   26011.12739884  .00030187  00000+0  85874-3 0  9994
2 67140  51.8707 343.4540 0008183 179.9182 180.1807 15.35853252  4882
KUIPER-00187            
1 67141U 25301J   26009.22914678  .00073426  00000+0  20781-2 0  9997
2 67141  51.8715 352.4882 0005093 161.2249 198.8926 15.35620690  4590
KUIPER-00188            
1 67142U 25301K   26011.19426185  .00032703  00000+0  93440-3 0  9994
2 67142  51.8717 343.1539 0007548 186.7796 173.3089 15.35680539  4894
