CCSDS_OMM_VERS = 2.0
CREATION_DATE  = 
ORIGINATOR     = 

OBJECT_NAME    = ZIYUAN 3-04 (ZY 3-04)
OBJECT_ID      = 2025-300A
CENTER_NAME    = EARTH
REF_FRAME      = TEME
TIME_SYSTEM    = UTC
MEAN_ELEMENT_THEORY = SGP/SGP4

EPOCH          = 2026-01-09T04:22:46.801632
MEAN_MOTION    = 15.21458354
ECCENTRICITY   = .00039457
INCLINATION    = 97.4889
RA_OF_ASC_NODE = 88.1516
ARG_OF_PERICENTER = 118.6144
MEAN_ANOMALY   = 241.5489

EPHEMERIS_TYPE = 0
CLASSIFICATION_TYPE = U
NORAD_CAT_ID   = 67131
ELEMENT_SET_NO = 999
REV_AT_EPOCH   = 366
BSTAR          = .80129707E-4
MEAN_MOTION_DOT = .173E-4
MEAN_MOTION_DDOT = 0

CCSDS_OMM_VERS = 2.0
CREATION_DATE  = 
ORIGINATOR     = 

OBJECT_NAME    = CZ-4B R/B
OBJECT_ID      = 2025-300B
CENTER_NAME    = EARTH
REF_FRAME      = TEME
TIME_SYSTEM    = UTC
MEAN_ELEMENT_THEORY = SGP/SGP4

EPOCH          = 2026-01-11T07:10:47.634816
MEAN_MOTION    = 15.70661294
ECCENTRICITY   = .01535088
INCLINATION    = 97.5503
RA_OF_ASC_NODE = 92.3780
ARG_OF_PERICENTER = 280.1710
MEAN_ANOMALY   = 78.2269

EPHEMERIS_TYPE = 0
CLASSIFICATION_TYPE = U
NORAD_CAT_ID   = 67132
ELEMENT_SET_NO = 999
REV_AT_EPOCH   = 410
BSTAR          = .61052499E-3
MEAN_MOTION_DOT = .15276E-2
MEAN_MOTION_DDOT = .9136027E-5

CCSDS_OMM_VERS = 2.0
CREATION_DATE  = 
ORIGINATOR     = 

OBJECT_NAME    = KUIPER-00144
OBJECT_ID      = 2025-301A
CENTER_NAME    = EARTH
REF_FRAME      = TEME
TIME_SYSTEM    = UTC
MEAN_ELEMENT_THEORY = SGP/SGP4

EPOCH          = 2026-01-11T04:28:17.677344
MEAN_MOTION    = 15.36121451
ECCENTRICITY   = .00063092
INCLINATION    = 51.8729
RA_OF_ASC_NODE = 343.1039
ARG_OF_PERICENTER = 168.2931
MEAN_ANOMALY   = 191.8203

EPHEMERIS_TYPE = 0
CLASSIFICATION_TYPE = U
NORAD_CAT_ID   = 67133
ELEMENT_SET_NO = 999
REV_AT_EPOCH   = 489
BSTAR          = .9064376E-3
MEAN_MOTION_DOT = .32158E-3
MEAN_MOTION_DDOT = 0

CCSDS_OMM_VERS = 2.0
CREATION_DATE  = 
ORIGINATOR     = 

OBJECT_NAME    = KUIPER-00164
OBJECT_ID      = 2025-301B
CENTER_NAME    = EARTH
REF_FRAME      = TEME
TIME_SYSTEM    = UTC
MEAN_ELEMENT_THEORY = SGP/SGP4

EPOCH          = 2026-01-11T04:12:22.237632
MEAN_MOTION    = 15.36695162
ECCENTRICITY   = .00029644
INCLINATION    = 51.8746
RA_OF_ASC_NODE = 343.0330
ARG_OF_PERICENTER = 148.9361
MEAN_ANOMALY   = 211.1801

EPHEMERIS_TYPE = 0
CLASSIFICATION_TYPE = U
NORAD_CAT_ID   = 67134
ELEMENT_SET_NO = 999
REV_AT_EPOCH   = 507
BSTAR          = .92583064E-3
MEAN_MOTION_DOT = .33463E-3
MEAN_MOTION_DDOT = 0

CCSDS_OMM_VERS = 2.0
CREATION_DATE  = 
ORIGINATOR     = 

OBJECT_NAME    = KUIPER-00175
OBJECT_ID      = 2025-301C
CENTER_NAME    = EARTH
REF_FRAME      = TEME
TIME_SYSTEM    = UTC
MEAN_ELEMENT_THEORY = SGP/SGP4

EPOCH          = 2026-01-11T07:07:17.054688
MEAN_MOTION    = 15.37246380
ECCENTRICITY   = .00027246
INCLINATION    = 51.8755
RA_OF_ASC_NODE = 342.3466
ARG_OF_PERICENTER = 97.9538
MEAN_ANOMALY   = 262.1758

EPHEMERIS_TYPE = 0
CLASSIFICATION_TYPE = U
NORAD_CAT_ID   = 67135
ELEMENT_SET_NO = 999
REV_AT_EPOCH   = 498
BSTAR          = .94586895E-3
MEAN_MOTION_DOT = .34821E-3
MEAN_MOTION_DDOT = 0

CCSDS_OMM_VERS = 2.0
CREATION_DATE  = 
ORIGINATOR     = 

OBJECT_NAME    = KUIPER-00179
OBJECT_ID      = 2025-301D
CENTER_NAME    = EARTH
REF_FRAME      = TEME
TIME_SYSTEM    = UTC
MEAN_ELEMENT_THEORY = SGP/SGP4

EPOCH          = 2026-01-11T04:08:58.322400
MEAN_MOTION    = 15.36804378
ECCENTRICITY   = .00031316
INCLINATION    = 51.8753
RA_OF_ASC_NODE = 343.0159
ARG_OF_PERICENTER = 133.4614
MEAN_ANOMALY   = 226.6633

EPHEMERIS_TYPE = 0
CLASSIFICATION_TYPE = U
NORAD_CAT_ID   = 67136
ELEMENT_SET_NO = 999
REV_AT_EPOCH   = 507
BSTAR          = .10855949E-2
MEAN_MOTION_DOT = .39476E-3
MEAN_MOTION_DDOT = 0

CCSDS_OMM_VERS = 2.0
CREATION_DATE  = 
ORIGINATOR     = 

OBJECT_NAME    = KUIPER-00181
OBJECT_ID      = 2025-301E
CENTER_NAME    = EARTH
REF_FRAME      = TEME
TIME_SYSTEM    = UTC
MEAN_ELEMENT_THEORY = SGP/SGP4

EPOCH          = 2026-01-11T01:47:09.000672
MEAN_MOTION    = 15.34781948
ECCENTRICITY   = .00106253
INCLINATION    = 51.8651
RA_OF_ASC_NODE = 343.8395
ARG_OF_PERICENTER = 194.1106
MEAN_ANOMALY   = 165.9584

EPHEMERIS_TYPE = 0
CLASSIFICATION_TYPE = U
NORAD_CAT_ID   = 67137
ELEMENT_SET_NO = 999
REV_AT_EPOCH   = 503
BSTAR          = .87260297E-3
MEAN_MOTION_DOT = .29657E-3
MEAN_MOTION_DDOT = 0

CCSDS_OMM_VERS = 2.0
CREATION_DATE  = 
ORIGINATOR     = 

OBJECT_NAME    = KUIPER-00183
OBJECT_ID      = 2025-301F
CENTER_NAME    = EARTH
REF_FRAME      = TEME
TIME_SYSTEM    = UTC
MEAN_ELEMENT_THEORY = SGP/SGP4

EPOCH          = 2026-01-11T03:27:21.988800
MEAN_MOTION    = 15.34797253
ECCENTRICITY   = .00112744
INCLINATION    = 51.8627
RA_OF_ASC_NODE = 343.5495
ARG_OF_PERICENTER = 196.9078
MEAN_ANOMALY   = 163.1534

EPHEMERIS_TYPE = 0
CLASSIFICATION_TYPE = U
NORAD_CAT_ID   = 67138
ELEMENT_SET_NO = 999
REV_AT_EPOCH   = 505
BSTAR          = .91899926E-3
MEAN_MOTION_DOT = .31283E-3
MEAN_MOTION_DDOT = 0

CCSDS_OMM_VERS = 2.0
CREATION_DATE  = 
ORIGINATOR     = 

OBJECT_NAME    = KUIPER-00184
OBJECT_ID      = 2025-301G
CENTER_NAME    = EARTH
REF_FRAME      = TEME
TIME_SYSTEM    = UTC
MEAN_ELEMENT_THEORY = SGP/SGP4

EPOCH          = 2026-01-11T04:52:42.273984
MEAN_MOTION    = 15.35047406
ECCENTRICITY   = .00094814
INCLINATION    = 51.8635
RA_OF_ASC_NODE = 343.2006
ARG_OF_PERICENTER = 194.7737
MEAN_ANOMALY   = 165.2972

EPHEMERIS_TYPE = 0
CLASSIFICATION_TYPE = U
NORAD_CAT_ID   = 67139
ELEMENT_SET_NO = 999
REV_AT_EPOCH   = 517
BSTAR          = .10235637E-2
MEAN_MOTION_DOT = .35166E-3
MEAN_MOTION_DDOT = 0

CCSDS_OMM_VERS = 2.0
CREATION_DATE  = 
ORIGINATOR     = 

OBJECT_NAME    = KUIPER-00186
OBJECT_ID      = 2025-301H
CENTER_NAME    = EARTH
REF_FRAME      = TEME
TIME_SYSTEM    = UTC
MEAN_ELEMENT_THEORY = SGP/SGP4

EPOCH          = 2026-01-11T03:03:27.259776
MEAN_MOTION    = 15.35853252
ECCENTRICITY   = .0008183
INCLINATION    = 51.8707
RA_OF_ASC_NODE = 343.4540
ARG_OF_PERICENTER = 179.9182
MEAN_ANOMALY   = 180.1807

EPHEMERIS_TYPE = 0
CLASSIFICATION_TYPE = U
NORAD_CAT_ID   = 67140
ELEMENT_SET_NO = 999
REV_AT_EPOCH   = 488
BSTAR          = .8587434E-3
MEAN_MOTION_DOT = .30187E-3
MEAN_MOTION_DDOT = 0

CCSDS_OMM_VERS = 2.0
CREATION_DATE  = 
ORIGINATOR     = 

OBJECT_NAME    = KUIPER-00187
OBJECT_ID      = 2025-301J
CENTER_NAME    = EARTH
REF_FRAME      = TEME
TIME_SYSTEM    = UTC
MEAN_ELEMENT_THEORY = SGP/SGP4

EPOCH          = 2026-01-09T05:29:58.281792
MEAN_MOTION    = 15.35620690
ECCENTRICITY   = .00050938
INCLINATION    = 51.8715
RA_OF_ASC_NODE = 352.4882
ARG_OF_PERICENTER = 161.2249
MEAN_ANOMALY   = 198.8926

EPHEMERIS_TYPE = 0
CLASSIFICATION_TYPE = U
NORAD_CAT_ID   = 67141
ELEMENT_SET_NO = 999
REV_AT_EPOCH   = 459
BSTAR          = .20781137E-2
MEAN_MOTION_DOT = .73426E-3
MEAN_MOTION_DDOT = 0

CCSDS_OMM_VERS = 2.0
CREATION_DATE  = 
ORIGINATOR     = 

OBJECT_NAME    = KUIPER-00188
OBJECT_ID      = 2025-301K
CENTER_NAME    = EARTH
REF_FRAME      = TEME
TIME_SYSTEM    = UTC
MEAN_ELEMENT_THEORY = SGP/SGP4

EPOCH          = 2026-01-11T04:39:44.223840
MEAN_MOTION    = 15.35680539
ECCENTRICITY   = .00075487
INCLINATION    = 51.8717
RA_OF_ASC_NODE = 343.1539
ARG_OF_PERICENTER = 186.7796
MEAN_ANOMALY   = 173.3089

EPHEMERIS_TYPE = 0
CLASSIFICATION_TYPE = U
NORAD_CAT_ID   = 67142
ELEMENT_SET_NO = 999
REV_AT_EPOCH   = 489
BSTAR          = .93440426E-3
MEAN_MOTION_DOT = .32703E-3
MEAN_MOTION_DDOT = 0

